{
  "links" : {
    "next" : "https://api.nasa.gov/neo/rest/v1/feed?start_date=1999-03-23&end_date=1999-03-23&detailed=true&api_key=t0TVs3DtDT2H8Oy2Zy8m2eVrNsAVKAexjcZXUckd",
    "prev" : "https://api.nasa.gov/neo/rest/v1/feed?start_date=1999-03-21&end_date=1999-03-21&detailed=true&api_key=t0TVs3DtDT2H8Oy2Zy8m2eVrNsAVKAexjcZXUckd",
    "self" : "https://api.nasa.gov/neo/rest/v1/feed?start_date=1999-03-22&end_date=1999-03-22&detailed=true&api_key=t0TVs3DtDT2H8Oy2Zy8m2eVrNsAVKAexjcZXUckd"
  },
  "element_count" : 2,
  "near_earth_objects" : {
    "1999-03-22" : [ {
      "links" : {
        "self" : "https://api.nasa.gov/neo/rest/v1/neo/2137170?api_key=t0TVs3DtDT2H8Oy2Zy8m2eVrNsAVKAexjcZXUckd"
      },
      "neo_reference_id" : "2137170",
      "name" : "137170 (1999 HF1)",
      "nasa_jpl_url" : "http://ssd.jpl.nasa.gov/sbdb.cgi?sstr=2137170",
      "absolute_magnitude_h" : 14.6,
      "estimated_diameter" : {
        "kilometers" : {
          "estimated_diameter_min" : 3.1956188672,
          "estimated_diameter_max" : 7.1456210173
        },
        "meters" : {
          "estimated_diameter_min" : 3195.6188672131,
          "estimated_diameter_max" : 7145.6210172693
        },
        "miles" : {
          "estimated_diameter_min" : 1.9856648911,
          "estimated_diameter_max" : 4.4400816771
        },
        "feet" : {
          "estimated_diameter_min" : 10484.3142043074,
          "estimated_diameter_max" : 23443.6392582979
        }
      },
      "is_potentially_hazardous_asteroid" : false,
      "close_approach_data" : [ {
        "close_approach_date" : "1999-03-22",
        "epoch_date_close_approach" : 922089600000,
        "relative_velocity" : {
          "kilometers_per_second" : "22.6116508855",
          "kilometers_per_hour" : "81401.9431877273",
          "miles_per_hour" : "50580.0018657298"
        },
        "miss_distance" : {
          "astronomical" : "0.2441842415",
          "lunar" : "94.9876708984",
          "kilometers" : "36529444",
          "miles" : "22698344"
        },
        "orbiting_body" : "Earth"
      } ],
      "orbital_data" : {
        "orbit_id" : "370",
        "orbit_determination_date" : "2017-06-11 06:17:12",
        "orbit_uncertainty" : "0",
        "minimum_orbit_intersection" : ".172442",
        "jupiter_tisserand_invariant" : "6.986",
        "epoch_osculation" : "2458000.5",
        "eccentricity" : ".4625079975767052",
        "semi_major_axis" : ".8191355959333055",
        "inclination" : "25.66189215139404",
        "ascending_node_longitude" : "155.8848751407972",
        "orbital_period" : "270.7896900151635",
        "perihelion_distance" : ".4402788317143912",
        "perihelion_argument" : "253.3808502108531",
        "aphelion_distance" : "1.19799236015222",
        "perihelion_time" : "2457975.957054180759",
        "mean_anomaly" : "32.62849665521625",
        "mean_motion" : "1.329445002059868",
        "equinox" : "J2000"
      }
    }, {
      "links" : {
        "self" : "https://api.nasa.gov/neo/rest/v1/neo/3771609?api_key=t0TVs3DtDT2H8Oy2Zy8m2eVrNsAVKAexjcZXUckd"
      },
      "neo_reference_id" : "3771609",
      "name" : "(2017 FG1)",
      "nasa_jpl_url" : "http://ssd.jpl.nasa.gov/sbdb.cgi?sstr=3771609",
      "absolute_magnitude_h" : 25.62,
      "estimated_diameter" : {
        "kilometers" : {
          "estimated_diameter_min" : 0.0199781365,
          "estimated_diameter_max" : 0.0446724713
        },
        "meters" : {
          "estimated_diameter_min" : 19.978136523,
          "estimated_diameter_max" : 44.6724713292
        },
        "miles" : {
          "estimated_diameter_min" : 0.0124138347,
          "estimated_diameter_max" : 0.0277581782
        },
        "feet" : {
          "estimated_diameter_min" : 65.5450694301,
          "estimated_diameter_max" : 146.5632308357
        }
      },
      "is_potentially_hazardous_asteroid" : false,
      "close_approach_data" : [ {
        "close_approach_date" : "1999-03-22",
        "epoch_date_close_approach" : 922089600000,
        "relative_velocity" : {
          "kilometers_per_second" : "9.6645515242",
          "kilometers_per_hour" : "34792.3854870795",
          "miles_per_hour" : "21618.6353044578"
        },
        "miss_distance" : {
          "astronomical" : "0.1663092708",
          "lunar" : "64.6943054199",
          "kilometers" : "24879512",
          "miles" : "15459412"
        },
        "orbiting_body" : "Earth"
      } ],
      "orbital_data" : {
        "orbit_id" : "3",
        "orbit_determination_date" : "2017-04-06 08:19:24",
        "orbit_uncertainty" : "6",
        "minimum_orbit_intersection" : ".0477185",
        "jupiter_tisserand_invariant" : "6.354",
        "epoch_osculation" : "2458000.5",
        "eccentricity" : ".2725040216323932",
        "semi_major_axis" : ".9330677231220347",
        "inclination" : "17.52168280531048",
        "ascending_node_longitude" : "356.7722022770229",
        "orbital_period" : "329.2063294909951",
        "perihelion_distance" : ".6788030161158999",
        "perihelion_argument" : "48.18635511018011",
        "aphelion_distance" : "1.18733243012817",
        "perihelion_time" : "2458062.948749360273",
        "mean_anomaly" : "291.7098495510152",
        "mean_motion" : "1.093539120455602",
        "equinox" : "J2000"
      }
    } ]
  }
}